{"type": "FeatureCollection", "features": [ {"type": "Feature", "properties": {"norad_id": 66910, "name": "1998-067XW", "group": "stations", "lat": 44.16338648816414, "lon": -70.38381879906984, "alt_km": 406.19411564514394, "timestamp": "2025-12-09T04:51:46.308221+00:00", "meta": {"OBJECT_NAME": "1998-067XW", "OBJECT_ID": "1998-067XW", "EPOCH": "2025-12-08T19:04:55.224768", "MEAN_MOTION": 15.51091956, "ECCENTRICITY": 0.0005915, "INCLINATION": 51.6296, "RA_OF_ASC_NODE": 161.9498, "ARG_OF_PERICENTER": 189.2693, "MEAN_ANOMALY": 170.8188, "EPHEMERIS_TYPE": 0, "CLASSIFICATION_TYPE": "U", "NORAD_CAT_ID": 66910, "ELEMENT_SET_NO": 999, "REV_AT_EPOCH": 100, "BSTAR": 0.0012166, "MEAN_MOTION_DOT": 0.00072421, "MEAN_MOTION_DDOT": 0}, "tle": {"line1": "1 66910U 98067XW  25342.79508362  .00072421  00000+0  12166-2 0  9991", "line2": "2 66910  51.6296 161.9498 0005915 189.2693 170.8188 15.51091956  1005"}}, "geometry": {"type": "Point", "coordinates": [-70.38381879906984, 44.16338648816414]}}, {"type": "Feature", "properties": {"norad_id": 66911, "name": "1998-067XX", "group": "stations", "lat": 43.392472210601326, "lon": -68.5864571941832, "alt_km": 405.87616711559804, "timestamp": "2025-12-09T04:51:46.308231+00:00", "meta": {"OBJECT_NAME": "1998-067XX", "OBJECT_ID": "1998-067XX", "EPOCH": "2025-12-08T19:04:34.995936", "MEAN_MOTION": 15.51222448, "ECCENTRICITY": 0.0005755, "INCLINATION": 51.6294, "RA_OF_ASC_NODE": 161.9483, "ARG_OF_PERICENTER": 189.9158, "MEAN_ANOMALY": 170.1718, "EPHEMERIS_TYPE": 0, "CLASSIFICATION_TYPE": "U", "NORAD_CAT_ID": 66911, "ELEMENT_SET_NO": 999, "REV_AT_EPOCH": 99, "BSTAR": 0.0014185, "MEAN_MOTION_DOT": 0.00085043, "MEAN_MOTION_DDOT": 0}, "tle": {"line1": "1 66911U 98067XX  25342.79484949  .00085043  00000+0  14185-2 0  9993", "line2": "2 66911  51.6294 161.9483 0005755 189.9158 170.1718 15.51222448   994"}}, "geometry": {"type": "Point", "coordinates": [-68.5864571941832, 43.392472210601326]}}, {"type": "Feature", "properties": {"norad_id": 66912, "name": "1998-067XY", "group": "stations", "lat": 48.596145709160936, "lon": -84.02314689723904, "alt_km": 408.62100399052815, "timestamp": "2025-12-09T04:51:46.308240+00:00", "meta": {"OBJECT_NAME": "1998-067XY", "OBJECT_ID": "1998-067XY", "EPOCH": "2025-12-08T19:07:24.189600", "MEAN_MOTION": 15.50590013, "ECCENTRICITY": 0.0005041, "INCLINATION": 51.6301, "RA_OF_ASC_NODE": 161.961, "ARG_OF_PERICENTER": 202.8515, "MEAN_ANOMALY": 157.2251, "EPHEMERIS_TYPE": 0, "CLASSIFICATION_TYPE": "U", "NORAD_CAT_ID": 66912, "ELEMENT_SET_NO": 999, "REV_AT_EPOCH": 99, "BSTAR": 0.0010397, "MEAN_MOTION_DOT": 0.00060617, "MEAN_MOTION_DDOT": 0}, "tle": {"line1": "1 66912U 98067XY  25342.79680775  .00060617  00000+0  10397-2 0  9990", "line2": "2 66912  51.6301 161.9610 0005041 202.8515 157.2251 15.50590013   999"}}, "geometry": {"type": "Point", "coordinates": [-84.02314689723904, 48.596145709160936]}}]}